{"fetched_at":"2026-03-30T13:17:50Z","count":15418,"tles":[{"name":"S5","line1":"1 44065U 19009D   26087.35351994 -.00000243  00000+0  00000+0 0  9998","line2":"2 44065   6.3570  71.7909 0002780 174.1640 181.4990  0.99337421 25631","category":"Other"}]}